NORAD_CAT_ID,OBJECT_NAME,OBJECT_TYPE,EPOCH,MEAN_MOTION,ECCENTRICITY,INCLINATION,RA_OF_ASC_NODE,ARG_OF_PERICENTER,MEAN_ANOMALY,BSTAR,MEAN_MOTION_DOT,MEAN_MOTION_DDOT,TLE_LINE0,TLE_LINE1,TLE_LINE2,SEMIMAJOR_AXIS,PERIOD,APOGEE,PERIGEE,DECAYED
55647.0,STARLINK-5510,PAYLOAD,2024-05-04 04:55:47,14.98316475,0.0002754,69.9997,84.9321,265.9694,94.115,-9.6751e-05,-1.247e-05,0.0,0 STARLINK-5510,1 55647U 23021V   24125.20541407 -.00001247  00000-0 -96751-4 0  9990,2 55647  69.9997  84.9321 0002754 265.9694  94.1150 14.98316475 67465,6950.235,96.108,574.014,570.186,0.0
55647.0,STARLINK-5510,PAYLOAD,2024-05-05 04:57:50,14.98302963,0.0003415,69.9999,82.4075,277.2683,82.8088,-0.00015783,-1.974e-05,0.0,0 STARLINK-5510,1 55647U 23021V   24126.20683284 -.00001974  00000-0 -15783-3 0  9993,2 55647  69.9999  82.4075 0003415 277.2683  82.8088 14.98302963 67613,6950.277,96.109,574.515,569.768,0.0
55647.0,STARLINK-5510,PAYLOAD,2024-05-05 06:33:58,14.9831013,0.0002941,69.9995,82.239,267.7786,92.3036,-0.00024223,-2.981e-05,0.0,0 STARLINK-5510,1 55647U 23021V   24126.27359112 -.00002981  00000-0 -24223-3 0  9998,2 55647  69.9995  82.2390 0002941 267.7786  92.3036 14.98310130 67623,6950.254,96.108,574.163,570.075,0.0
55647.0,STARLINK-5510,PAYLOAD,2024-05-05 22:35:17,14.98318311,0.0003335,69.9987,80.5555,270.7221,89.3556,0.00015189,1.719e-05,0.0,0 STARLINK-5510,1 55647U 23021V   24126.94118039  .00001719  00000-0  15189-3 0  9990,2 55647  69.9987  80.5555 0003335 270.7221  89.3556 14.98318311 68021,6950.229,96.108,574.412,569.776,0.0
55647.0,STARLINK-5510,PAYLOAD,2024-05-06 04:59:49,14.98331163,0.0003019,69.9992,79.8809,263.7599,96.3216,0.00025034,2.895e-05,0.0,0 STARLINK-5510,1 55647U 23021V   24127.20821084  .00002895  00000-0  25034-3 0  9997,2 55647  69.9992  79.8809 0003019 263.7599  96.3216 14.98331163 67760,6950.189,96.107,574.153,569.956,0.0
55647.0,STARLINK-5510,PAYLOAD,2024-05-06 06:35:57,14.98334245,0.0003069,69.9991,79.7123,265.5256,94.5553,0.00027066,3.138e-05,0.0,0 STARLINK-5510,1 55647U 23021V   24127.27496860  .00003138  00000-0  27066-3 0  9992,2 55647  69.9991  79.7123 0003069 265.5256  94.5553 14.98334245 68075,6950.18,96.107,574.178,569.912,0.0
55647.0,STARLINK-5510,PAYLOAD,2024-05-06 22:37:17,14.98337321,0.0002979,69.9995,78.0303,264.8484,95.2335,0.00039024,4.567e-05,0.0,0 STARLINK-5510,1 55647U 23021V   24127.94256172  .00004567  00000-0  39024-3 0  9990,2 55647  69.9995  78.0303 0002979 264.8484  95.2335 14.98337321 68170,6950.17,96.107,574.106,569.965,0.0
55647.0,STARLINK-5510,PAYLOAD,2024-05-07 05:01:49,14.98343412,0.0002895,69.9995,77.3569,263.832,96.251,0.00049991,5.879e-05,0.0,0 STARLINK-5510,1 55647U 23021V   24128.20959517  .00005879  00000-0  49991-3 0  9994,2 55647  69.9995  77.3569 0002895 263.8320  96.2510 14.98343412 67916,6950.151,96.106,574.028,570.004,0.0
55647.0,STARLINK-5510,PAYLOAD,2024-05-07 06:37:56,14.98345462,0.0002897,69.9996,77.1886,263.707,96.3759,0.00051769,6.092e-05,0.0,0 STARLINK-5510,1 55647U 23021V   24128.27635363  .00006092  00000-0  51769-3 0  9995,2 55647  69.9996  77.1886 0002897 263.7070  96.3759 14.98345462 68228,6950.145,96.106,574.024,569.997,0.0
55647.0,STARLINK-5510,PAYLOAD,2024-05-07 21:03:10,14.98340184,0.0003147,69.9996,75.6737,259.3313,100.7491,-5.613e-05,-7.63e-06,0.0,0 STARLINK-5510,1 55647U 23021V   24128.87720717 -.00000763  00000-0 -56130-4 0  9998,2 55647  69.9996  75.6737 0003147 259.3313 100.7491 14.98340184 68012,6950.161,96.106,574.214,569.839,0.0
55647.0,STARLINK-5510,PAYLOAD,2024-05-07 22:39:18,14.98338327,0.0003091,69.9993,75.5056,260.4466,99.6344,-7.9437e-05,-1.041e-05,0.0,0 STARLINK-5510,1 55647U 23021V   24128.94396868 -.00001041  00000-0 -79437-4 0  9997,2 55647  69.9993  75.5056 0003091 260.4466  99.6344 14.98338327 68325,6950.167,96.106,574.18,569.884,0.0
55647.0,STARLINK-5510,PAYLOAD,2024-05-08 13:04:31,14.98338095,0.0002865,70.0,73.991,263.1232,96.9601,-0.00010786,-1.38e-05,0.0,0 STARLINK-5510,1 55647U 23021V   24129.54480672 -.00001380  00000-0 -10786-3 0  9998,2 55647  70.0000  73.9910 0002865 263.1232  96.9601 14.98338095 68415,6950.168,96.106,574.024,570.042,0.0
55647.0,STARLINK-5510,PAYLOAD,2024-05-08 21:05:11,14.98343345,0.0002876,69.9998,73.149,265.0327,95.0504,-0.00013974,-1.76e-05,0.0,0 STARLINK-5510,1 55647U 23021V   24129.87860166 -.00001760  00000-0 -13974-3 0  9998,2 55647  69.9998  73.1490 0002876 265.0327  95.0504 14.98343345 68169,6950.152,96.106,574.015,570.018,0.0
55647.0,STARLINK-5510,PAYLOAD,2024-05-08 22:41:19,14.9834461,0.0002861,69.9998,72.981,264.4888,95.5945,-9.7533e-05,-1.257e-05,0.0,0 STARLINK-5510,1 55647U 23021V   24129.94535931 -.00001257  00000-0 -97533-4 0  9990,2 55647  69.9998  72.9810 0002861 264.4888  95.5945 14.98344610 68475,6950.148,96.106,574.001,570.024,0.0
55647.0,STARLINK-5510,PAYLOAD,2024-05-09 05:05:50,14.9835041,0.0002817,70.0,72.3077,266.1712,93.9125,-5.0483e-05,-6.96e-06,0.0,0 STARLINK-5510,1 55647U 23021V   24130.21239257 -.00000696  00000-0 -50483-4 0  9993,2 55647  70.0000  72.3077 0002817 266.1712  93.9125 14.98350410 68216,6950.13,96.106,573.953,570.037,0.0
55647.0,STARLINK-5510,PAYLOAD,2024-05-09 06:41:58,14.98350896,0.0002793,70.0,72.1394,264.8654,95.2186,-3.4011e-05,-4.99e-06,0.0,0 STARLINK-5510,1 55647U 23021V   24130.27915115 -.00000499  00000-0 -34011-4 0  9993,2 55647  70.0000  72.1394 0002793 264.8654  95.2186 14.98350896 68523,6950.128,96.106,573.934,570.052,0.0
55647.0,STARLINK-5510,PAYLOAD,2024-05-09 21:07:12,14.98323123,0.0002912,70.0011,70.6252,265.799,94.2836,0.00018,2.055e-05,0.0,0 STARLINK-5510,1 55647U 23021V   24130.88000180  .00002055  00000-0  18000-3 0  9994,2 55647  70.0011  70.6252 0002912 265.7990  94.2836 14.98323123 68318,6950.214,96.107,574.103,570.055,0.0
55647.0,STARLINK-5510,PAYLOAD,2024-05-09 22:43:20,14.98325095,0.0002546,70.0009,70.4572,256.8463,103.2412,0.00011729,1.307e-05,0.0,0 STARLINK-5510,1 55647U 23021V   24130.94676233  .00001307  00000-0  11729-3 0  9999,2 55647  70.0009  70.4572 0002546 256.8463 103.2412 14.98325095 68622,6950.208,96.107,573.843,570.304,0.0
55647.0,STARLINK-5510,PAYLOAD,2024-05-10 06:44:00,14.98323692,0.00029,70.0016,69.6152,258.491,101.5923,0.00017206,1.96e-05,0.0,0 STARLINK-5510,1 55647U 23021V   24131.28056282  .00001960  00000-0  17206-3 0  9994,2 55647  70.0016  69.6152 0002900 258.4910 101.5923 14.98323692 68677,6950.212,96.107,574.093,570.062,0.0
55647.0,STARLINK-5510,PAYLOAD,2024-05-10 21:09:12,14.98334154,0.0002767,70.0012,68.0997,260.5528,99.5318,8.832e-05,9.61e-06,0.0,0 STARLINK-5510,1 55647U 23021V   24131.88139806  .00000961  00000-0  88320-4 0  9990,2 55647  70.0012  68.0997 0002767 260.5528  99.5318 14.98334154 68469,6950.18,96.107,573.968,570.122,0.0
55647.0,STARLINK-5510,PAYLOAD,2024-05-10 22:45:20,14.98334676,0.0002784,70.0014,67.9308,262.4591,97.6252,0.00010715,1.186e-05,0.0,0 STARLINK-5510,1 55647U 23021V   24131.94815689  .00001186  00000-0  10715-3 0  9999,2 55647  70.0014  67.9308 0002784 262.4591  97.6252 14.98334676 68774,6950.178,96.107,573.978,570.109,0.0
55647.0,STARLINK-5510,PAYLOAD,2024-05-11 05:09:51,14.98362806,0.0002308,70.002,67.26,242.5863,117.5061,0.00037021,4.331e-05,0.0,0 STARLINK-5510,1 55647U 23021V   24132.21517448  .00004331  00000-0  37021-3 0  9996,2 55647  70.0020  67.2600 0002308 242.5863 117.5061 14.98362806 68510,6950.091,96.105,573.561,570.352,0.0
55647.0,STARLINK-5510,PAYLOAD,2024-05-11 21:11:14,14.98290493,0.0002942,70.0025,65.5752,258.6293,101.4535,-0.00087736,-0.00010535,0.0,0 STARLINK-5510,1 55647U 23021V   24132.88280738 -.00010535  00000-0 -87736-3 0  9991,2 55647  70.0025  65.5752 0002942 258.6293 101.4535 14.98290493 68614,6950.315,96.11,574.225,570.135,0.0
55647.0,STARLINK-5510,PAYLOAD,2024-05-11 22:47:22,14.98288414,0.0002758,70.0028,65.4072,255.0324,105.053,-0.00088744,-0.00010654,0.0,0 STARLINK-5510,1 55647U 23021V   24132.94956998 -.00010654  00000-0 -88744-3 0  9998,2 55647  70.0028  65.4072 0002758 255.0324 105.0530 14.98288414 68921,6950.321,96.11,574.103,570.27,0.0
55647.0,STARLINK-5510,PAYLOAD,2024-05-12 13:12:37,14.98278731,0.0002539,70.0031,63.8916,269.335,90.7518,-0.00093,-0.00011157,0.0,0 STARLINK-5510,1 55647U 23021V   24133.55042957 -.00011157  00000-0 -93000-3 0  9997,2 55647  70.0031  63.8916 0002539 269.3350  90.7518 14.98278731 69016,6950.351,96.11,573.981,570.452,0.0
55647.0,STARLINK-5510,PAYLOAD,2024-05-12 21:13:16,14.98304286,0.0002141,70.0038,63.0473,243.396,116.6979,-0.00027014,-3.312e-05,0.0,0 STARLINK-5510,1 55647U 23021V   24133.88422425 -.00003312  00000-0 -27014-3 0  9991,2 55647  70.0038  63.0473 0002141 243.3960 116.6979 14.98304286 68766,6950.272,96.109,573.625,570.649,0.0
55647.0,STARLINK-5510,PAYLOAD,2024-05-12 22:49:25,14.98305853,0.0002084,70.0034,62.8787,244.8278,115.2665,-0.00022439,-2.767e-05,0.0,0 STARLINK-5510,1 55647U 23021V   24133.95098477 -.00002767  00000-0 -22439-3 0  9994,2 55647  70.0034  62.8787 0002084 244.8278 115.2665 14.98305853 69074,6950.268,96.109,573.581,570.684,0.0
55647.0,STARLINK-5510,PAYLOAD,2024-05-13 05:13:56,14.98321453,0.0002665,70.0021,62.2098,258.2579,101.8282,-5.338e-05,-7.3e-06,0.0,0 STARLINK-5510,1 55647U 23021V   24134.21801830 -.00000730  00000-0 -53380-4 0  9997,2 55647  70.0021  62.2098 0002665 258.2579 101.8282 14.98321453 68818,6950.219,96.108,573.937,570.232,0.0
55647.0,STARLINK-5510,PAYLOAD,2024-05-14 05:15:57,14.98319093,0.0002993,70.0003,59.6838,265.5192,94.5625,0.00082706,9.786e-05,0.0,0 STARLINK-5510,1 55647U 23021V   24135.21941241  .00009786  00000-0  82706-3 0  9990,2 55647  70.0003  59.6838 0002993 265.5192  94.5625 14.98319093 68968,6950.227,96.108,574.172,570.011,0.0
55647.0,STARLINK-5510,PAYLOAD,2024-05-14 11:40:30,14.98332319,0.0002595,70.0022,59.01,269.9434,90.1427,0.00097001,0.00011501,0.0,0 STARLINK-5510,1 55647U 23021V   24135.48646274  .00011501  00000-0  97001-3 0  9999,2 55647  70.0022  59.0100 0002595 269.9434  90.1427 14.98332319 69307,6950.186,96.107,573.854,570.247,0.0
